     2.100          NAVIGATION                              RINEX VERSION / TYPE
fic2rin                                 01/24/2012 00:12:51 PGM / RUN BY / DATE
                                                            END OF HEADER
 3 12  1 23 14  0  0.0  .825820490718D-03  .500222085975D-11  .000000000000D+00
     .580000000000D+02 -.100781250000D+03  .485591655413D-08 -.211316434379D+01
    -.535137951374D-05  .149773497833D-01  .108852982521D-04  .515370687866D+04
     .136800000000D+06  .204890966415D-06 -.151184913413D+00 -.558793544769D-07
     .930834923502D+00  .146750000000D+03  .116753090673D+01 -.792247285994D-08
     .114290474943D-09  .100000000000D+01  .167200000000D+04  .000000000000D+00
     .340000000000D+01  .000000000000D+00 -.465661287308D-08  .580000000000D+02
     .129606000000D+06  .400000000000D+01
 4 12  1 23 14  0  0.0  .720298849046D-04  .113686837722D-10  .000000000000D+00
     .880000000000D+02  .375312500000D+02  .540986819987D-08  .852562392829D+00
     .222399830818D-05  .999506190419D-02  .785104930401D-05  .515377810669D+04
     .136800000000D+06 -.428408384323D-07  .102732170298D+01  .856816768646D-07
     .937578626210D+00  .217156250000D+03  .825322736770D+00 -.853035532354D-08
     .503235247482D-09  .100000000000D+01  .167200000000D+04  .000000000000D+00
     .240000000000D+01  .000000000000D+00 -.651925802231D-08  .880000000000D+02
     .129606000000D+06  .400000000000D+01
 5 12  1 23 14  0  0.0 -.274053309113D-03 -.454747350886D-11  .000000000000D+00
     .680000000000D+02 -.321875000000D+02  .518664461600D-08 -.355178432367D+00
    -.173598527908D-05  .269919482525D-02  .542029738426D-05  .515358068275D+04
     .136800000000D+06  .447034835815D-07  .207356100821D+01  .149011611938D-07
     .951617661461D+00  .269687500000D+03  .286316439692D+00 -.838284917932D-08
    -.496806408267D-09  .100000000000D+01  .167200000000D+04  .000000000000D+00
     .240000000000D+01  .000000000000D+00 -.102445483208D-07  .680000000000D+02
     .129606000000D+06  .400000000000D+01
 6 12  1 23 14  0  0.0  .263373367488D-04  .250111042988D-11  .000000000000D+00
     .810000000000D+02 -.861250000000D+02  .485341644999D-08 -.174070743865D+00
    -.464543700218D-05  .691450852901D-02  .116545706987D-04  .515370576668D+04
     .136800000000D+06  .540167093277D-07 -.756068657180D-01 -.143423676491D-06
     .937809338632D+00  .144125000000D+03 -.620247185088D+00 -.819248410699D-08
     .610739725475D-10  .100000000000D+01  .167200000000D+04  .000000000000D+00
     .340000000000D+01  .000000000000D+00 -.512227416039D-08  .810000000000D+02
     .129606000000D+06  .400000000000D+01
 7 12  1 23 14  0  0.0  .519272871315D-04  .261479726760D-11  .000000000000D+00
     .510000000000D+02  .130968750000D+03  .430053627746D-08  .250572205494D+01
     .676140189171D-05  .507428939454D-02  .432506203651D-05  .515362332535D+04
     .136800000000D+06 -.745058059692D-07 -.210116707989D+01 -.931322574615D-08
     .975467693905D+00  .303687500000D+03 -.300618166607D+01 -.816462580372D-08
     .405374028313D-09  .100000000000D+01  .167200000000D+04  .000000000000D+00
     .240000000000D+01  .000000000000D+00 -.111758708954D-07  .510000000000D+02
     .129606000000D+06  .400000000000D+01
 8 12  1 23 14  0  0.0  .459607690573D-06  .113686837722D-12  .000000000000D+00
     .700000000000D+02  .119531250000D+03  .386658963041D-08  .193197318411D+01
     .621937215328D-05  .120731603820D-01  .401958823204D-05  .515371243095D+04
     .136800000000D+06 -.987201929092D-07 -.202050414400D+01  .150874257088D-06
     .997416882280D+00  .322625000000D+03 -.298312989389D+01 -.800783355841D-08
     .290726395636D-09  .100000000000D+01  .167200000000D+04  .000000000000D+00
     .340000000000D+01  .000000000000D+00 -.419095158577D-08  .700000000000D+02
     .129606000000D+06  .400000000000D+01
10 12  1 23 14  0  0.0 -.265869311988D-04 -.125055521494D-11  .000000000000D+00
     .131000000000D+03 -.318750000000D+02  .538736726261D-08  .407264499744D-01
    -.154785811901D-05  .111359112198D-01  .546872615814D-05  .515365432739D+04
     .136800000000D+06  .391155481339D-07  .209585591046D+01  .158324837685D-06
     .946535485517D+00  .263687500000D+03  .736565501481D+00 -.859928676624D-08
    -.542879755978D-09  .100000000000D+01  .167200000000D+04  .000000000000D+00
     .340000000000D+01  .000000000000D+00 -.279396772385D-08  .131000000000D+03
     .129606000000D+06  .400000000000D+01
11 12  1 23 14  0  0.0 -.225593335927D-03 -.363797880709D-11  .000000000000D+00
     .770000000000D+02  .410000000000D+02  .619561521510D-08  .268233189355D+01
     .197999179363D-05  .127215782413D-01  .942684710026D-05  .515367436981D+04
     .136800000000D+06  .335276126862D-07  .760472697449D+00 -.137835741043D-06
     .888042433823D+00  .156343750000D+03  .102390265423D+01 -.854642742158D-08
     .670027909352D-09  .100000000000D+01  .167200000000D+04  .000000000000D+00
     .240000000000D+01  .000000000000D+00 -.116415321827D-07  .770000000000D+02
     .129606000000D+06  .400000000000D+01
12 12  1 23 14  0  0.0  .482550822198D-04  .216004991671D-11  .000000000000D+00
     .490000000000D+02 -.835000000000D+02  .435625288399D-08  .238258396702D+01
    -.441260635853D-05  .375810731202D-02  .172108411789D-05  .515358043480D+04
     .136800000000D+06  .186264514923D-08 -.104478441126D+01  .651925802231D-07
     .978124702774D+00  .352937500000D+03 -.729803864860D-01 -.826284418063D-08
    -.225723688012D-09  .100000000000D+01  .167200000000D+04  .000000000000D+00
     .240000000000D+01  .000000000000D+00 -.121071934700D-07  .490000000000D+02
     .129606000000D+06  .400000000000D+01
13 12  1 23 14  0  0.0  .229110475630D-03 -.204636307899D-11  .000000000000D+00
     .420000000000D+02  .810937500000D+02  .352764694065D-08 -.136045198056D+01
     .411272048950D-05  .469490420073D-02  .128932297230D-04  .515373532104D+04
     .136800000000D+06 -.745058059692D-07 -.307262282191D+01  .298023223877D-07
     .987560446851D+00  .146093750000D+03  .193965431009D+01 -.749709799851D-08
    -.268582616115D-09  .100000000000D+01  .167200000000D+04  .000000000000D+00
     .240000000000D+01  .000000000000D+00 -.116415321827D-07  .420000000000D+02
     .129606000000D+06  .400000000000D+01
14 12  1 23 14  0  0.0  .191150233150D-03  .147792889038D-11  .000000000000D+00
     .105000000000D+03  .570000000000D+02  .368908223651D-08 -.135268730586D+01
     .294297933578D-05  .620993890334D-02  .121276825666D-04  .515377366638D+04
     .136800000000D+06  .176951289177D-06 -.309843412718D+01  .137835741043D-06
     .980456213834D+00  .159656250000D+03 -.205430023609D+01 -.753852829568D-08
    -.340014162955D-09  .100000000000D+01  .167200000000D+04  .000000000000D+00
     .240000000000D+01  .000000000000D+00 -.884756445885D-08  .105000000000D+03
     .129606000000D+06  .400000000000D+01
15 12  1 23 14  0  0.0 -.941348262131D-04  .682121026330D-12  .000000000000D+00
     .900000000000D+02  .341562500000D+02  .445411410316D-08 -.169007451121D+01
     .174902379513D-05  .427585770376D-02  .126212835312D-04  .515375985336D+04
     .136800000000D+06 -.912696123123D-07  .310112482851D+01 -.186264514923D-07
     .947360413318D+00  .130937500000D+03  .410726539266D-02 -.786175604512D-08
    -.333228166005D-09  .100000000000D+01  .167200000000D+04  .000000000000D+00
     .240000000000D+01  .000000000000D+00 -.102445483208D-07  .900000000000D+02
     .129606000000D+06  .400000000000D+01
16 12  1 23 14  0  0.0 -.220148824155D-03 -.170530256582D-11  .000000000000D+00
     .600000000000D+02 -.975625000000D+02  .433803783955D-08  .422373137308D-01
    -.503472983837D-05  .633229664527D-02  .281818211079D-05  .515359936905D+04
     .136800000000D+06  .502914190292D-07 -.102671869985D+01 -.502914190292D-07
     .979027909859D+00  .331375000000D+03 -.823114031832D-01 -.833499004293D-08
    -.254296306748D-09  .100000000000D+01  .167200000000D+04  .000000000000D+00
     .240000000000D+01  .000000000000D+00 -.977888703346D-08  .600000000000D+02
     .129606000000D+06  .400000000000D+01
17 12  1 23 14  0  0.0  .153096858412D-03 -.216004991671D-11  .000000000000D+00
     .270000000000D+02 -.912187500000D+02  .425696303388D-08 -.908430502817D+00
    -.460632145405D-05  .707142194733D-02  .124778598547D-04  .515363451767D+04
     .136800000000D+06  .111758708954D-06  .144011484371D-01  .141561031342D-06
     .962813478852D+00  .138906250000D+03 -.236330400727D+01 -.782139722116D-08
     .138934358602D-09  .100000000000D+01  .167200000000D+04  .000000000000D+00
     .240000000000D+01  .000000000000D+00 -.107102096081D-07  .270000000000D+02
     .129606000000D+06  .400000000000D+01
18 12  1 23 14  0  0.0  .178128015250D-03  .181898940355D-11  .000000000000D+00
     .630000000000D+02 -.359375000000D+02  .576274004125D-08  .540028435015D+00
    -.176951289177D-05  .127709117951D-01  .541098415852D-05  .515365600586D+04
     .136800000000D+06 -.111758708954D-06  .208658761930D+01  .949949026108D-07
     .930369790162D+00  .261406250000D+03 -.219863910690D+01 -.887965558758D-08
    -.585381526347D-09  .100000000000D+01  .167200000000D+04  .000000000000D+00
     .240000000000D+01  .000000000000D+00 -.111758708954D-07  .630000000000D+02
     .129606000000D+06  .400000000000D+01
20 12  1 23 14  0  0.0  .605736859143D-04  .682121026330D-12  .000000000000D+00
     .200000000000D+01 -.305000000000D+02  .569595154496D-08  .955326009574D+00
    -.164657831192D-05  .511539122090D-02  .546500086784D-05  .515377324295D+04
     .136800000000D+06 -.912696123123D-07  .203276543389D+01  .409781932831D-07
     .930698657072D+00  .257843750000D+03  .126948565705D+01 -.867214694402D-08
    -.483234414367D-09  .100000000000D+01  .167200000000D+04  .000000000000D+00
     .240000000000D+01  .000000000000D+00 -.791624188423D-08  .200000000000D+01
     .129606000000D+06  .400000000000D+01
